{
  "type": "FeatureCollection",
  "features": [
    {
      "type": "Feature",
      "properties": {
        "norad_id": 66629,
        "name": "STARLINK-35956",
        "group": "last-30-days",
        "lat": 10.461166567850356,
        "lon": 179.80266050344702,
        "alt_km": 418.0434699098323,
        "timestamp": "2025-12-15T22:44:27.660657+00:00",
        "meta_object_name": "STARLINK-35956",
        "meta_object_id": "2025-271N",
        "meta_epoch": "2025-12-15T08:00:01.999872",
        "meta_mean_motion": 15.49267986,
        "meta_eccentricity": 7.708e-05,
        "meta_inclination": 53.1593,
        "meta_ra_of_asc_node": 174.7832,
        "meta_arg_of_pericenter": 99.052,
        "meta_mean_anomaly": 86.5901,
        "meta_ephemeris_type": 0,
        "meta_classification_type": "U",
        "meta_norad_cat_id": 66629,
        "meta_element_set_no": 999,
        "meta_rev_at_epoch": 466,
        "meta_bstar": 0.0012229032,
        "meta_mean_motion_dot": 0.0006806,
        "meta_mean_motion_ddot": 0,
        "tle_line1": "1 66629U 25271N   25349.33335648  .00068060  00000+0  12229-2 0  9991",
        "tle_line2": "2 66629  53.1593 174.7832 0000770  99.0520  86.5901 15.49267986  4660"
      },
      "geometry": {
        "type": "Point",
        "coordinates": [
          179.80266050344702,
          10.461166567850356
        ]
      }
    },
    {
      "type": "Feature",
      "properties": {
        "norad_id": 66630,
        "name": "STARLINK-35949",
        "group": "last-30-days",
        "lat": 11.96283827982214,
        "lon": -179.0192125270903,
        "alt_km": 417.5159478704163,
        "timestamp": "2025-12-15T22:44:27.660672+00:00",
        "meta_object_name": "STARLINK-35949",
        "meta_object_id": "2025-271P",
        "meta_epoch": "2025-12-15T08:00:01.999872",
        "meta_mean_motion": 15.4930367,
        "meta_eccentricity": 8.724e-05,
        "meta_inclination": 53.1594,
        "meta_ra_of_asc_node": 174.7782,
        "meta_arg_of_pericenter": 86.1169,
        "meta_mean_anomaly": 101.3275,
        "meta_ephemeris_type": 0,
        "meta_classification_type": "U",
        "meta_norad_cat_id": 66630,
        "meta_element_set_no": 999,
        "meta_rev_at_epoch": 466,
        "meta_bstar": 0.0014368817,
        "meta_mean_motion_dot": 0.00080275,
        "meta_mean_motion_ddot": 0,
        "tle_line1": "1 66630U 25271P   25349.33335648  .00080275  00000+0  14369-2 0  9992",
        "tle_line2": "2 66630  53.1594 174.7782 0000872  86.1169 101.3275 15.49303670  4667"
      },
      "geometry": {
        "type": "Point",
        "coordinates": [
          -179.0192125270903,
          11.96283827982214
        ]
      }
    },
    {
      "type": "Feature",
      "properties": {
        "norad_id": 66631,
        "name": "STARLINK-35965",
        "group": "last-30-days",
        "lat": 13.495437954696607,
        "lon": -177.79674880270997,
        "alt_km": 417.17234121612637,
        "timestamp": "2025-12-15T22:44:27.660683+00:00",
        "meta_object_name": "STARLINK-35965",
        "meta_object_id": "2025-271Q",
        "meta_epoch": "2025-12-15T08:00:01.999872",
        "meta_mean_motion": 15.49264724,
        "meta_eccentricity": 7.377e-05,
        "meta_inclination": 53.1592,
        "meta_ra_of_asc_node": 174.7749,
        "meta_arg_of_pericenter": 43.9382,
        "meta_mean_anomaly": 145.5444,
        "meta_ephemeris_type": 0,
        "meta_classification_type": "U",
        "meta_norad_cat_id": 66631,
        "meta_element_set_no": 999,
        "meta_rev_at_epoch": 466,
        "meta_bstar": 0.0012393037,
        "meta_mean_motion_dot": 0.00068979,
        "meta_mean_motion_ddot": 0,
        "tle_line1": "1 66631U 25271Q   25349.33335648  .00068979  00000+0  12393-2 0  9995",
        "tle_line2": "2 66631  53.1592 174.7749 0000737  43.9382 145.5444 15.49264724  4661"
      },
      "geometry": {
        "type": "Point",
        "coordinates": [
          -177.79674880270997,
          13.495437954696607
        ]
      }
    },
    {
      "type": "Feature",
      "properties": {
        "norad_id": 66632,
        "name": "STARLINK-35973",
        "group": "last-30-days",
        "lat": -16.095727332753178,
        "lon": 159.4169023198991,
        "alt_km": 451.5382837127627,
        "timestamp": "2025-12-15T22:44:27.660696+00:00",
        "meta_object_name": "STARLINK-35973",
        "meta_object_id": "2025-271R",
        "meta_epoch": "2025-12-15T08:00:01.999872",
        "meta_mean_motion": 15.42364134,
        "meta_eccentricity": 0.0001388,
        "meta_inclination": 53.1593,
        "meta_ra_of_asc_node": 174.8109,
        "meta_arg_of_pericenter": 119.3137,
        "meta_mean_anomaly": 51.7457,
        "meta_ephemeris_type": 0,
        "meta_classification_type": "U",
        "meta_norad_cat_id": 66632,
        "meta_element_set_no": 999,
        "meta_rev_at_epoch": 460,
        "meta_bstar": -0.059564005,
        "meta_mean_motion_dot": -0.02329117,
        "meta_mean_motion_ddot": 0,
        "tle_line1": "1 66632U 25271R   25349.33335648 -.02329117  00000+0 -59564-1 0  9994",
        "tle_line2": "2 66632  53.1593 174.8109 0001388 119.3137  51.7457 15.42364134  4608"
      },
      "geometry": {
        "type": "Point",
        "coordinates": [
          159.4169023198991,
          -16.095727332753178
        ]
      }
    },
    {
      "type": "Feature",
      "properties": {
        "norad_id": 66633,
        "name": "STARLINK-35948",
        "group": "last-30-days",
        "lat": -14.66707800353238,
        "lon": 160.58980735025355,
        "alt_km": 451.27919717234636,
        "timestamp": "2025-12-15T22:44:27.660707+00:00",
        "meta_object_name": "STARLINK-35948",
        "meta_object_id": "2025-271S",
        "meta_epoch": "2025-12-15T08:00:01.999872",
        "meta_mean_motion": 15.42347576,
        "meta_eccentricity": 0.00011465,
        "meta_inclination": 53.1594,
        "meta_ra_of_asc_node": 174.8061,
        "meta_arg_of_pericenter": 119.1825,
        "meta_mean_anomaly": 53.7339,
        "meta_ephemeris_type": 0,
        "meta_classification_type": "U",
        "meta_norad_cat_id": 66633,
        "meta_element_set_no": 999,
        "meta_rev_at_epoch": 466,
        "meta_bstar": -0.059526543,
        "meta_mean_motion_dot": -0.02326497,
        "meta_mean_motion_ddot": 0,
        "tle_line1": "1 66633U 25271S   25349.33335648 -.02326497  00000+0 -59527-1 0  9992",
        "tle_line2": "2 66633  53.1594 174.8061 0001146 119.1825  53.7339 15.42347576  4669"
      },
      "geometry": {
        "type": "Point",
        "coordinates": [
          160.58980735025355,
          -14.66707800353238
        ]
      }
    },
    {
      "type": "Feature",
      "properties": {
        "norad_id": 66634,
        "name": "STARLINK-35967",
        "group": "last-30-days",
        "lat": 3.3304952650414674,
        "lon": 174.3617478243437,
        "alt_km": 438.619614253892,
        "timestamp": "2025-12-15T22:44:27.660719+00:00",
        "meta_object_name": "STARLINK-35967",
        "meta_object_id": "2025-271T",
        "meta_epoch": "2025-12-15T08:00:01.999872",
        "meta_mean_motion": 15.45231055,
        "meta_eccentricity": 0.00014831,
        "meta_inclination": 53.16,
        "meta_ra_of_asc_node": 174.7747,
        "meta_arg_of_pericenter": 78.23,
        "meta_mean_anomaly": 110.4296,
        "meta_ephemeris_type": 0,
        "meta_classification_type": "U",
        "meta_norad_cat_id": 66634,
        "meta_element_set_no": 999,
        "meta_rev_at_epoch": 459,
        "meta_bstar": -0.045992009,
        "meta_mean_motion_dot": -0.01983112,
        "meta_mean_motion_ddot": 0,
        "tle_line1": "1 66634U 25271T   25349.33335648 -.01983112  00000+0 -45992-1 0  9996",
        "tle_line2": "2 66634  53.1600 174.7747 0001483  78.2300 110.4296 15.45231055  4597"
      },
      "geometry": {
        "type": "Point",
        "coordinates": [
          174.3617478243437,
          3.3304952650414674
        ]
      }
    },
    {
      "type": "Feature",
      "properties": {
        "norad_id": 66635,
        "name": "STARLINK-35955",
        "group": "last-30-days",
        "lat": 19.48873296529982,
        "lon": -172.7931929655943,
        "alt_km": 416.58488414291514,
        "timestamp": "2025-12-15T22:44:27.660730+00:00",
        "meta_object_name": "STARLINK-35955",
        "meta_object_id": "2025-271U",
        "meta_epoch": "2025-12-15T08:00:01.999872",
        "meta_mean_motion": 15.49300535,
        "meta_eccentricity": 2.113e-05,
        "meta_inclination": 53.1591,
        "meta_ra_of_asc_node": 174.7577,
        "meta_arg_of_pericenter": 32.6863,
        "meta_mean_anomaly": 164.4504,
        "meta_ephemeris_type": 0,
        "meta_classification_type": "U",
        "meta_norad_cat_id": 66635,
        "meta_element_set_no": 999,
        "meta_rev_at_epoch": 466,
        "meta_bstar": 0.00048320631,
        "meta_mean_motion_dot": 0.00026509,
        "meta_mean_motion_ddot": 0,
        "tle_line1": "1 66635U 25271U   25349.33335648  .00026509  00000+0  48321-3 0  9993",
        "tle_line2": "2 66635  53.1591 174.7577 0000211  32.6863 164.4504 15.49300535  4667"
      },
      "geometry": {
        "type": "Point",
        "coordinates": [
          -172.7931929655943,
          19.48873296529982
        ]
      }
    }
  ]
}